{
  "type": "FeatureCollection",
  "features": [
    {
      "type": "Feature",
      "properties": {
        "norad_id": 28051,
        "name": "IRS-P6 (RESOURCESAT-1)",
        "group": "resource",
        "lat": 38.711872409767466,
        "lon": 33.75710432796919,
        "alt_km": 776.2337311672363,
        "timestamp": "2025-12-26T15:29:39.094713+00:00",
        "meta_object_name": "IRS-P6 (RESOURCESAT-1)",
        "meta_object_id": "2003-046A",
        "meta_epoch": "2025-12-26T07:22:41.419776",
        "meta_mean_motion": 14.3608118,
        "meta_eccentricity": 0.00649626,
        "meta_inclination": 98.2158,
        "meta_ra_of_asc_node": 40.0843,
        "meta_arg_of_pericenter": 140.1829,
        "meta_mean_anomaly": 312.5516,
        "meta_ephemeris_type": 0,
        "meta_classification_type": "U",
        "meta_norad_cat_id": 28051,
        "meta_element_set_no": 999,
        "meta_rev_at_epoch": 15571,
        "meta_bstar": 0.00013510415,
        "meta_mean_motion_dot": 3.62e-06,
        "meta_mean_motion_ddot": 0,
        "tle_line1": "1 28051U 03046A   25360.30742384  .00000362  00000+0  13510-3 0  9999",
        "tle_line2": "2 28051  98.2158  40.0843 0064962 140.1829 312.5516 14.36081180155716"
      },
      "geometry": {
        "type": "Point",
        "coordinates": [
          33.75710432796919,
          38.711872409767466
        ]
      }
    },
    {
      "type": "Feature",
      "properties": {
        "norad_id": 28220,
        "name": "SHIYAN-1 (SY-1)",
        "group": "resource",
        "lat": -24.242538711880645,
        "lon": -120.57513952517435,
        "alt_km": 484.28455680078696,
        "timestamp": "2025-12-26T15:29:39.094724+00:00",
        "meta_object_name": "SHIYAN-1 (SY-1)",
        "meta_object_id": "2004-012A",
        "meta_epoch": "2025-12-26T02:01:58.498176",
        "meta_mean_motion": 15.28486878,
        "meta_eccentricity": 0.00051616,
        "meta_inclination": 97.8911,
        "meta_ra_of_asc_node": 62.4117,
        "meta_arg_of_pericenter": 269.0234,
        "meta_mean_anomaly": 91.0413,
        "meta_ephemeris_type": 0,
        "meta_classification_type": "U",
        "meta_norad_cat_id": 28220,
        "meta_element_set_no": 999,
        "meta_rev_at_epoch": 18460,
        "meta_bstar": 0.00046656189,
        "meta_mean_motion_dot": 0.00012867,
        "meta_mean_motion_ddot": 0,
        "tle_line1": "1 28220U 04012A   25360.08470484  .00012867  00000+0  46656-3 0  9995",
        "tle_line2": "2 28220  97.8911  62.4117 0005161 269.0234  91.0413 15.28486878184605"
      },
      "geometry": {
        "type": "Point",
        "coordinates": [
          -120.57513952517435,
          -24.242538711880645
        ]
      }
    },
    {
      "type": "Feature",
      "properties": {
        "norad_id": 28376,
        "name": "AURA",
        "group": "resource",
        "lat": 67.41078728379496,
        "lon": 151.53313631849386,
        "alt_km": 682.4945886351607,
        "timestamp": "2025-12-26T15:29:39.094735+00:00",
        "meta_object_name": "AURA",
        "meta_object_id": "2004-026A",
        "meta_epoch": "2025-12-26T05:07:32.244096",
        "meta_mean_motion": 14.60976898,
        "meta_eccentricity": 0.00014453,
        "meta_inclination": 98.3204,
        "meta_ra_of_asc_node": 310.5042,
        "meta_arg_of_pericenter": 90.3774,
        "meta_mean_anomaly": 269.7592,
        "meta_ephemeris_type": 0,
        "meta_classification_type": "U",
        "meta_norad_cat_id": 28376,
        "meta_element_set_no": 999,
        "meta_rev_at_epoch": 14095,
        "meta_bstar": 0.00024041337,
        "meta_mean_motion_dot": 1.131e-05,
        "meta_mean_motion_ddot": 0,
        "tle_line1": "1 28376U 04026A   25360.21356764  .00001131  00000+0  24041-3 0  9997",
        "tle_line2": "2 28376  98.3204 310.5042 0001445  90.3774 269.7592 14.60976898140950"
      },
      "geometry": {
        "type": "Point",
        "coordinates": [
          151.53313631849386,
          67.41078728379496
        ]
      }
    },
    {
      "type": "Feature",
      "properties": {
        "norad_id": 28649,
        "name": "IRS-P5 (CARTOSAT-1)",
        "group": "resource",
        "lat": -4.008727382515537,
        "lon": 26.97411533109951,
        "alt_km": 599.9776562324114,
        "timestamp": "2025-12-26T15:29:39.094752+00:00",
        "meta_object_name": "IRS-P5 (CARTOSAT-1)",
        "meta_object_id": "2005-017A",
        "meta_epoch": "2025-12-26T01:00:39.646656",
        "meta_mean_motion": 14.90447527,
        "meta_eccentricity": 4.71e-05,
        "meta_inclination": 97.5483,
        "meta_ra_of_asc_node": 25.865,
        "meta_arg_of_pericenter": 68.6931,
        "meta_mean_anomaly": 291.4338,
        "meta_ephemeris_type": 0,
        "meta_classification_type": "U",
        "meta_norad_cat_id": 28649,
        "meta_element_set_no": 999,
        "meta_rev_at_epoch": 11802,
        "meta_bstar": 0.00016417442,
        "meta_mean_motion_dot": 1.548e-05,
        "meta_mean_motion_ddot": 0,
        "tle_line1": "1 28649U 05017A   25360.04212554  .00001548  00000+0  16417-3 0  9990",
        "tle_line2": "2 28649  97.5483  25.8650 0000471  68.6931 291.4338 14.90447527118023"
      },
      "geometry": {
        "type": "Point",
        "coordinates": [
          26.97411533109951,
          -4.008727382515537
        ]
      }
    },
    {
      "type": "Feature",
      "properties": {
        "norad_id": 28893,
        "name": "SINAH 1",
        "group": "resource",
        "lat": 70.49151386024828,
        "lon": -26.549483685708534,
        "alt_km": 662.6389826696486,
        "timestamp": "2025-12-26T15:29:39.094763+00:00",
        "meta_object_name": "SINAH 1",
        "meta_object_id": "2005-043D",
        "meta_epoch": "2025-12-26T06:48:11.715552",
        "meta_mean_motion": 14.63976508,
        "meta_eccentricity": 0.00157323,
        "meta_inclination": 98.261,
        "meta_ra_of_asc_node": 128.8776,
        "meta_arg_of_pericenter": 97.5368,
        "meta_mean_anomaly": 262.7622,
        "meta_ephemeris_type": 0,
        "meta_classification_type": "U",
        "meta_norad_cat_id": 28893,
        "meta_element_set_no": 999,
        "meta_rev_at_epoch": 7522,
        "meta_bstar": 0.00010369915,
        "meta_mean_motion_dot": 4.95e-06,
        "meta_mean_motion_ddot": 0,
        "tle_line1": "1 28893U 05043D   25360.28346893  .00000495  00000+0  10370-3 0  9992",
        "tle_line2": "2 28893  98.2610 128.8776 0015732  97.5368 262.7622 14.63976508 75225"
      },
      "geometry": {
        "type": "Point",
        "coordinates": [
          -26.549483685708534,
          70.49151386024828
        ]
      }
    },
    {
      "type": "Feature",
      "properties": {
        "norad_id": 29079,
        "name": "EROS B",
        "group": "resource",
        "lat": 40.05616963631214,
        "lon": 111.70031941552881,
        "alt_km": 347.4485594602256,
        "timestamp": "2025-12-26T15:29:39.094773+00:00",
        "meta_object_name": "EROS B",
        "meta_object_id": "2006-014A",
        "meta_epoch": "2025-12-26T06:09:41.533344",
        "meta_mean_motion": 15.72806806,
        "meta_eccentricity": 0.00046483,
        "meta_inclination": 97.3451,
        "meta_ra_of_asc_node": 117.5167,
        "meta_arg_of_pericenter": 312.0474,
        "meta_mean_anomaly": 48.0394,
        "meta_ephemeris_type": 0,
        "meta_classification_type": "U",
        "meta_norad_cat_id": 29079,
        "meta_element_set_no": 999,
        "meta_rev_at_epoch": 9292,
        "meta_bstar": 0.0014985603,
        "meta_mean_motion_dot": 0.00206803,
        "meta_mean_motion_ddot": 0,
        "tle_line1": "1 29079U 06014A   25360.25673071  .00206803  00000+0  14986-2 0  9993",
        "tle_line2": "2 29079  97.3451 117.5167 0004648 312.0474  48.0394 15.72806806 92922"
      },
      "geometry": {
        "type": "Point",
        "coordinates": [
          111.70031941552881,
          40.05616963631214
        ]
      }
    },
    {
      "type": "Feature",
      "properties": {
        "norad_id": 29228,
        "name": "RESURS-DK 1",
        "group": "resource",
        "lat": -48.23053258935796,
        "lon": 41.74022587804829,
        "alt_km": 533.3334741059525,
        "timestamp": "2025-12-26T15:29:39.094784+00:00",
        "meta_object_name": "RESURS-DK 1",
        "meta_object_id": "2006-021A",
        "meta_epoch": "2025-12-26T06:12:04.097664",
        "meta_mean_motion": 15.12235716,
        "meta_eccentricity": 0.00069407,
        "meta_inclination": 69.9336,
        "meta_ra_of_asc_node": 66.8994,
        "meta_arg_of_pericenter": 246.5689,
        "meta_mean_anomaly": 113.4747,
        "meta_ephemeris_type": 0,
        "meta_classification_type": "U",
        "meta_norad_cat_id": 29228,
        "meta_element_set_no": 999,
        "meta_rev_at_epoch": 7642,
        "meta_bstar": 0.0001786883,
        "meta_mean_motion_dot": 2.99e-05,
        "meta_mean_motion_ddot": 0,
        "tle_line1": "1 29228U 06021A   25360.25838076  .00002990  00000+0  17869-3 0  9990",
        "tle_line2": "2 29228  69.9336  66.8994 0006940 246.5689 113.4747 15.12235716 76421"
      },
      "geometry": {
        "type": "Point",
        "coordinates": [
          41.74022587804829,
          -48.23053258935796
        ]
      }
    }
  ]
}